OBJECT_NAME,OBJECT_ID,EPOCH,MEAN_MOTION,ECCENTRICITY,INCLINATION,RA_OF_ASC_NODE,ARG_OF_PERICENTER,MEAN_ANOMALY,EPHEMERIS_TYPE,CLASSIFICATION_TYPE,NORAD_CAT_ID,ELEMENT_SET_NO,REV_AT_EPOCH,BSTAR,MEAN_MOTION_DOT,MEAN_MOTION_DDOT
SHIJIAN-25 (SJ-25),2025-002A,2026-07-02T18:21:01.463328,1.00272141,.005163,5.1479,61.0664,174.7980,87.5189,0,U,62485,999,551,0,-.341E-5,0
TJS-14,2025-017A,2026-07-03T14:01:19.610400,1.00271853,.00013741,0.7474,296.7280,288.2806,285.3043,0,U,62804,999,543,0,.127E-5,0
SPAINSAT NG I,2025-021A,2026-07-02T19:15:06.713856,1.00268491,.00005769,0.0193,15.3608,142.6716,80.5656,0,U,62852,999,414,0,.162E-5,0
QZS-6 (MICHIBIKI-6),2025-023A,2026-07-02T21:06:58.790304,1.00271590,.0002077,0.0437,284.7659,191.2588,212.1673,0,U,62876,999,510,0,-.223E-5,0
ZHONGXING-10R,2025-036A,2026-07-02T21:18:08.284896,1.00271017,.00041549,0.0561,237.4725,269.2908,204.2292,0,U,63075,999,511,0,-.341E-5,0
TJS-15,2025-045A,2026-07-02T18:13:22.827936,1.00274962,.0003804,0.3058,85.5733,301.9252,260.9777,0,U,63157,999,491,0,-.254E-5,0
TIANLIAN 2-04,2025-062A,2026-07-03T09:10:51.012768,1.00271100,.00311438,4.3351,274.2012,9.7998,215.1789,0,U,63361,999,476,0,-.122E-5,0
TJS-16,2025-064A,2026-07-02T16:45:57.134016,1.00272015,.0002939,1.1359,81.3849,299.1841,312.2806,0,U,63397,999,454,0,-.95E-6,0
TJS-17,2025-073A,2026-07-02T18:36:52.481952,1.00271016,.0001564,1.1020,82.5843,315.8143,326.1705,0,U,63524,999,444,0,-.59E-6,0
TIANLIAN 2-05,2025-084A,2026-07-02T07:14:07.211040,1.00276640,.000336,4.4149,279.6564,160.7561,328.9206,0,U,63662,999,453,0,.138E-5,0
TJS-19,2025-097A,2026-07-02T18:04:31.516320,1.00271699,.0003438,3.2611,317.6772,238.0724,137.4555,0,U,63924,999,430,0,-.263E-5,0
CHINASAT 3B,2025-106A,2026-07-03T18:09:09.810720,1.00272424,.0003816,0.0354,169.6576,324.0322,227.6778,0,U,64062,999,422,0,-.33E-6,0
SXM-10,2025-122A,2026-07-02T16:51:10.353024,1.00274129,.00017948,0.0187,35.0781,337.5022,44.7826,0,U,64290,999,383,0,-.7E-7,0
COSMOS 2589,2025-131A,2026-07-02T18:07:05.854368,1.00272301,.0000936,0.0398,102.1054,108.8979,79.5624,0,U,64467,999,371,0,-.28E-5,0
CHINASAT 9C,2025-132A,2026-07-02T21:03:23.836608,1.00275544,.00033583,0.0499,241.0175,222.6832,225.2586,0,U,64470,999,430,0,-.237E-5,0
MTG-S1,2025-143A,2026-07-02T17:24:08.004096,1.00272109,.00029574,0.5916,342.2144,262.9947,296.1264,0,U,64723,999,357,0,.3E-7,0
DROR 1,2025-148A,2026-07-02T17:23:08.100384,1.00272349,.00024537,0.0146,8.4806,33.0922,135.9571,0,U,64784,999,345,0,-.24E-6,0
SHIYAN-29,2025-196A,2026-07-02T15:25:42.290976,1.00281424,.0013288,28.8374,18.3404,174.9626,53.8913,0,U,65486,999,303,0,-.268E-5,0
NUSANTARA LIMA (NUSANTARA 5),2025-205A,2026-07-02T20:13:10.193376,1.00276741,.00008594,0.0021,103.8441,26.7647,206.4179,0,U,65588,999,287,0,-.347E-5,0
TJS-20,2025-238A,2026-07-02T20:52:50.260224,1.00272079,.00047335,5.4358,299.4839,170.7769,186.2334,0,U,66142,999,248,0,.38E-6,0
CMS-03 (GSAT-7R),2025-249B,2026-07-02T20:54:36.455328,1.00271933,.00020321,0.0567,258.0966,175.8013,234.6339,0,U,66311,999,250,0,-.66E-6,0
VIASAT-3 F2,2025-261A,2026-07-02T18:43:57.735840,1.00270726,.00006194,0.0140,144.8195,26.2815,311.7286,0,U,66454,999,295,0,-.223E-5,0
SHIJIAN-28 (SJ-28),2025-277A,2026-07-02T20:14:11.229792,1.00276476,.00007627,4.4996,271.8792,57.4011,11.9869,0,U,66549,999,231,0,-.347E-5,0
TJS-22,2025-290A,2026-07-02T20:01:22.113408,1.00273617,.00022902,1.4908,286.7772,320.6954,40.2243,0,U,66990,999,218,0,.4E-7,0
TJS-23,2025-306A,2026-07-02T13:26:20.142240,1.00272426,.00046453,5.5532,297.4079,185.7195,174.5156,0,U,67226,999,204,0,.3E-6,0
FENGYUN 4C,2025-312A,2026-06-30T16:25:12.487584,1.00270776,.00007061,0.0471,163.2991,4.6384,130.1121,0,U,67246,999,191,0,-.312E-5,0
SHIJIAN-29A (SJ-29A),2025-315A,2026-07-03T16:23:49.564320,1.00271146,.00035135,3.4372,94.7250,27.0541,119.0147,0,U,67302,999,178,0,-.57E-6,0
SHIJIAN-29B (SJ-29B),2025-315C,2026-07-03T02:18:23.635296,1.00272179,.00047607,3.4349,94.7321,43.7155,250.4498,0,U,67403,999,184,0,-.58E-6,0
ELEKTRO-L 5,2026-028A,2026-07-02T00:15:32.906592,1.00272068,.00018367,0.2263,318.4344,181.2265,220.3488,0,U,67756,999,140,0,-.87E-6,0
JAM-E JAM 1,2026-028B,2026-07-02T20:37:43.632192,1.00268636,.00012343,0.2297,307.3118,339.6513,337.4102,0,U,67757,999,127,0,.167E-5,0
ECHOSTAR 25,2026-045A,2026-07-02T16:52:55.184736,1.00268939,.00017173,0.0206,33.6434,76.4194,313.9217,0,U,68126,999,114,0,0,0
TJS-24,2026-116A,2026-07-03T16:10:36.700896,1.00274030,.00002277,0.0501,99.8908,350.4592,164.2811,0,U,69235,999,39,0,-.22E-5,0
